{"type":"FeatureCollection","features":[{"type":"Feature","properties":{"ISO_A2":"CA","NAME_EN":"Canada"},"geometry":{"type":"MultiPolygon","coordinates":[[[[-122.84,49.0],[-125.625,50.417],[-127.436,50.831],[-127.993,51.716],[-127.85,52.33],[-129.13,52.755],[-129.305,53.562],[-130.515,54.288],[-130.536,54.803],[-129.98,55.285],[-130.008,55.916],[-131.708,56.552],[-133.356,58.41],[-135.476,59.788],[-137.452,58.905],[-139.039,60.0],[-140.998,60.306],[-140.986,69.712],[-136.504,68.898],[-134.415,69.627],[-132.929,69.505],[-129.795,70.194],[-129.108,69.779],[-128.362,70.013],[-128.138,70.484],[-127.447,70.377],[-125.756,69.481],[-124.425,70.158],[-124.29,69.4],[-123.061,69.564],[-122.684,69.856],[-121.472,69.798],[-117.603,69.011],[-115.247,68.906],[-113.898,68.399],[-115.305,67.903],[-113.497,67.688],[-109.946,67.981],[-108.88,67.381],[-107.792,67.887],[-108.813,68.312],[-108.167,68.654],[-106.15,68.8],[-104.338,68.018],[-103.221,68.098],[-101.454,67.647],[-98.443,67.782],[-98.559,68.404],[-97.669,68.579],[-96.12,68.239],[-96.126,67.293],[-95.489,68.091],[-94.685,68.064],[-94.233,69.069],[-96.471,70.09],[-96.391,71.195],[-95.209,71.921],[-93.89,71.76],[-92.878,71.319],[-91.52,70.191],[-92.407,69.7],[-90.547,69.498],[-90.552,68.475],[-89.215,69.259],[-88.02,68.615],[-88.317,67.873],[-87.35,67.199],[-86.306,67.921],[-85.577,68.785],[-85.522,69.882],[-82.623,69.658],[-81.28,69.162],[-81.22,68.666],[-81.964,68.133],[-81.259,67.597],[-81.387,67.111],[-83.345,66.412],[-84.735,66.257],[-85.769,66.558],[-87.323,64.776],[-88.483,64.099],[-89.914,64.033],[-90.704,63.61],[-90.77,62.96],[-91.933,62.835],[-93.157,62.025],[-94.242,60.899],[-94.629,60.11],[-94.685,58.949],[-93.215,58.782],[-92.297,57.087],[-90.898,57.285],[-89.04,56.852],[-87.324,55.999],[-85.012,55.303],[-82.273,55.148],[-82.436,54.282],[-82.125,53.277],[-81.401,52.158],[-79.913,51.208],[-79.143,51.534],[-78.602,52.562],[-79.124,54.141],[-79.83,54.668],[-78.229,55.136],[-77.096,55.837],[-76.541,56.534],[-76.623,57.203],[-77.302,58.052],[-78.517,58.805],[-77.337,59.853],[-78.107,62.32],[-77.411,62.551],[-74.668,62.181],[-73.84,62.444],[-71.677,61.525],[-71.374,61.137],[-69.59,61.061],[-69.288,58.957],[-68.375,58.801],[-67.65,58.212],[-66.202,58.767],[-64.584,60.336],[-61.397,56.967],[-61.799,56.339],[-59.57,55.204],[-57.333,54.626],[-56.937,53.78],[-56.158,53.647],[-55.756,53.27],[-55.683,52.147],[-57.127,51.42],[-58.775,51.064],[-60.033,50.243],[-61.724,50.08],[-66.399,50.229],[-67.236,49.512],[-68.511,49.068],[-71.105,46.822],[-70.255,46.986],[-68.65,48.3],[-66.552,49.133],[-65.056,49.233],[-64.171,48.742],[-65.115,48.071],[-64.472,46.238],[-63.173,45.739],[-61.521,45.884],[-60.518,47.008],[-60.449,46.283],[-59.803,45.92],[-61.04,45.265],[-64.247,44.266],[-65.364,43.545],[-66.123,43.619],[-66.162,44.465],[-64.425,45.292],[-67.137,45.138],[-67.791,45.703],[-67.79,47.066],[-68.234,47.355],[-68.905,47.185],[-69.237,47.448],[-70.0,46.693],[-70.66,45.46],[-71.405,45.255],[-71.505,45.008],[-74.867,45.0],[-76.82,43.629],[-78.72,43.625],[-79.172,43.466],[-78.939,42.864],[-82.439,41.675],[-83.142,41.976],[-82.138,43.571],[-82.551,45.348],[-83.593,45.817],[-83.47,45.995],[-83.891,46.117],[-84.142,46.512],[-84.605,46.44],[-84.876,46.9],[-88.378,48.303],[-89.273,48.02],[-90.83,48.27],[-91.64,48.14],[-94.329,48.671],[-94.64,48.84],[-94.818,49.389],[-95.156,49.384],[-95.159,49.0],[-122.84,49.0]]],[[[-83.994,62.453],[-83.25,62.914],[-81.877,62.905],[-81.898,62.711],[-83.069,62.159],[-83.775,62.182],[-83.994,62.453]]],[[[-79.776,72.803],[-80.876,73.333],[-80.834,73.693],[-78.064,73.652],[-76.34,73.103],[-76.251,72.826],[-79.776,72.803]]],[[[-80.315,62.086],[-79.929,62.386],[-79.266,62.159],[-79.658,61.633],[-80.1,61.718],[-80.315,62.086]]],[[[-93.613,74.98],[-94.157,74.592],[-96.821,74.928],[-96.289,75.378],[-94.851,75.647],[-93.613,74.98]]],[[[-93.721,77.634],[-96.17,77.555],[-96.436,77.835],[-94.423,77.82],[-93.721,77.634]]],[[[-96.754,78.766],[-95.559,78.418],[-95.83,78.057],[-97.31,77.851],[-98.124,78.083],[-98.553,78.458],[-98.632,78.872],[-96.754,78.766]]],[[[-88.15,74.392],[-92.422,74.838],[-92.89,75.883],[-93.894,76.319],[-95.962,76.441],[-97.121,76.751],[-96.745,77.161],[-91.605,76.779],[-90.742,76.45],[-90.97,76.074],[-89.187,75.61],[-86.379,75.482],[-81.129,75.714],[-80.058,75.337],[-79.834,74.923],[-81.949,74.442],[-88.15,74.392]]],[[[-112.725,78.051],[-109.854,77.996],[-110.187,77.697],[-112.051,77.409],[-113.534,77.732],[-112.725,78.051]]],[[[-111.5,78.85],[-109.663,78.602],[-112.542,78.408],[-111.5,78.85]]],[[[-55.407,51.588],[-56.796,49.812],[-56.143,50.15],[-55.471,49.936],[-55.822,49.587],[-54.935,49.313],[-54.474,49.557],[-53.477,49.249],[-53.786,48.517],[-53.086,48.688],[-52.648,47.536],[-53.069,46.655],[-54.179,46.807],[-53.962,47.625],[-54.24,47.752],[-55.401,46.885],[-55.997,46.92],[-55.291,47.39],[-56.251,47.633],[-59.266,47.603],[-59.419,47.899],[-58.797,48.252],[-59.232,48.523],[-58.392,49.126],[-57.359,50.718],[-56.739,51.287],[-55.871,51.632],[-55.407,51.588]]],[[[-84.464,65.372],[-81.642,64.455],[-81.553,63.98],[-80.817,64.057],[-80.103,63.726],[-80.991,63.411],[-82.547,63.652],[-83.109,64.102],[-85.523,63.052],[-85.867,63.637],[-87.222,63.541],[-86.353,64.036],[-85.884,65.739],[-85.161,65.657],[-84.976,65.218],[-84.464,65.372]]],[[[-78.771,72.352],[-77.825,72.75],[-74.229,71.767],[-74.099,71.331],[-72.242,71.557],[-71.2,70.92],[-68.786,70.525],[-67.915,70.122],[-66.969,69.186],[-68.805,68.72],[-64.862,67.848],[-63.425,66.928],[-61.852,66.862],[-62.163,66.16],[-63.918,64.999],[-65.149,65.426],[-66.721,66.388],[-68.015,66.263],[-68.141,65.69],[-65.32,64.383],[-64.669,63.393],[-65.014,62.674],[-68.783,63.746],[-66.328,62.28],[-66.166,61.931],[-68.877,62.33],[-71.023,62.911],[-72.235,63.398],[-71.886,63.68],[-74.834,64.679],[-74.819,64.389],[-77.71,64.23],[-78.556,64.573],[-77.897,65.309],[-73.96,65.455],[-74.294,65.812],[-73.945,66.311],[-72.651,67.285],[-73.312,68.069],[-76.869,68.895],[-76.229,69.148],[-77.287,69.77],[-78.957,70.167],[-79.492,69.872],[-81.305,69.743],[-88.682,70.411],[-89.513,70.762],[-88.468,71.218],[-89.888,71.223],[-90.205,72.235],[-89.437,73.129],[-88.408,73.538],[-85.826,73.804],[-86.562,73.157],[-85.774,72.534],[-84.85,73.34],[-82.316,73.751],[-80.6,72.717],[-80.749,72.062],[-78.771,72.352]]],[[[-94.504,74.135],[-92.42,74.1],[-90.51,73.857],[-92.004,72.966],[-93.196,72.772],[-94.269,72.025],[-95.41,72.062],[-96.034,72.94],[-96.018,73.437],[-95.496,73.862],[-94.504,74.135]]],[[[-122.855,76.117],[-119.104,77.512],[-116.199,77.645],[-116.336,76.877],[-117.106,76.53],[-121.5,75.9],[-122.855,76.117]]],[[[-133.18,54.17],[-131.75,54.12],[-132.049,52.985],[-131.179,52.18],[-131.578,52.182],[-133.055,53.411],[-133.18,54.17]]],[[[-105.492,79.302],[-100.825,78.8],[-99.671,77.908],[-102.95,78.343],[-105.176,78.38],[-104.21,78.677],[-105.42,78.918],[-105.492,79.302]]],[[[-123.51,48.51],[-124.013,48.371],[-125.655,48.825],[-127.03,49.815],[-128.059,49.995],[-128.445,50.539],[-128.358,50.771],[-125.755,50.295],[-124.921,49.475],[-123.923,49.062],[-123.51,48.51]]],[[[-121.538,74.449],[-117.556,74.186],[-115.511,73.475],[-119.22,72.52],[-120.46,71.82],[-120.46,71.384],[-123.092,70.902],[-123.62,71.34],[-125.929,71.869],[-123.94,73.68],[-124.918,74.293],[-121.538,74.449]]],[[[-107.819,75.846],[-105.881,75.969],[-105.705,75.48],[-106.313,75.005],[-109.7,74.85],[-112.223,74.417],[-113.744,74.394],[-113.871,74.72],[-111.794,75.163],[-116.312,75.043],[-117.71,75.222],[-116.346,76.199],[-115.405,76.479],[-112.591,76.141],[-110.814,75.549],[-109.067,75.473],[-110.497,76.43],[-109.581,76.794],[-108.549,76.678],[-107.819,75.846]]],[[[-107.516,73.236],[-105.402,72.673],[-104.465,70.993],[-100.981,70.024],[-101.089,69.584],[-102.731,69.504],[-102.093,69.12],[-102.43,68.753],[-105.96,69.18],[-113.313,68.536],[-113.855,69.007],[-115.22,69.28],[-116.108,69.168],[-117.34,69.96],[-112.416,70.366],[-114.35,70.6],[-117.905,70.541],[-118.432,70.909],[-116.113,71.309],[-119.402,71.559],[-117.866,72.706],[-115.189,73.315],[-114.167,73.121],[-114.666,72.653],[-112.441,72.955],[-111.05,72.45],[-109.92,72.961],[-109.007,72.633],[-108.188,71.651],[-107.686,72.065],[-108.396,73.09],[-107.516,73.236]]],[[[-100.438,72.706],[-101.54,73.36],[-100.356,73.844],[-99.164,73.633],[-97.38,73.76],[-97.12,73.47],[-98.054,72.991],[-96.54,72.56],[-96.72,71.66],[-98.36,71.273],[-99.323,71.356],[-102.5,72.51],[-102.48,72.83],[-100.438,72.706]]],[[[-106.94,73.46],[-105.26,73.64],[-104.5,73.42],[-105.38,72.76],[-106.94,73.46]]],[[[-98.5,76.72],[-97.736,76.257],[-97.704,75.743],[-98.16,75.0],[-99.809,74.897],[-100.884,75.057],[-100.863,75.641],[-102.502,75.564],[-102.566,76.337],[-98.5,76.72]]],[[[-96.71,80.158],[-95.323,80.907],[-94.298,80.977],[-94.735,81.206],[-92.41,81.257],[-91.133,80.723],[-87.81,80.32],[-87.02,79.66],[-85.814,79.337],[-89.035,78.287],[-92.877,78.343],[-93.951,78.751],[-93.936,79.114],[-93.145,79.38],[-94.974,79.372],[-96.076,79.705],[-96.71,80.158]]],[[[-91.587,81.894],[-86.97,82.28],[-85.5,82.652],[-83.18,82.32],[-82.42,82.86],[-79.307,83.131],[-72.832,83.233],[-65.827,83.028],[-61.85,82.629],[-61.894,82.362],[-67.658,81.501],[-65.48,81.507],[-69.47,80.617],[-71.18,79.8],[-76.908,79.323],[-75.529,79.198],[-76.22,79.019],[-75.393,78.526],[-79.76,77.21],[-79.62,76.983],[-77.911,77.022],[-77.889,76.778],[-80.561,76.178],[-83.174,76.454],[-86.112,76.299],[-89.491,76.472],[-89.616,76.952],[-87.767,77.178],[-88.26,77.9],[-84.976,77.539],[-86.34,78.18],[-87.962,78.372],[-87.152,78.759],[-85.379,78.997],[-85.095,79.345],[-86.507,79.736],[-86.932,80.251],[-83.409,80.1],[-81.848,80.464],[-87.599,80.516],[-89.367,80.856],[-91.368,81.553],[-91.587,81.894]]],[[[-75.216,67.444],[-75.866,67.149],[-76.987,67.099],[-77.236,67.588],[-76.812,68.149],[-75.895,68.287],[-75.114,68.01],[-75.216,67.444]]],[[[-98.218,70.144],[-95.648,69.108],[-96.27,68.757],[-97.617,69.06],[-98.432,68.951],[-99.797,69.4],[-98.218,70.144]]],[[[-64.519,49.873],[-62.858,49.706],[-61.806,49.105],[-63.589,49.401],[-64.519,49.873]]],[[[-64.015,47.036],[-63.664,46.55],[-62.012,46.443],[-62.874,45.968],[-64.143,46.393],[-64.393,46.727],[-64.015,47.036]]]]}},{"type":"Feature","properties":{"ISO_A2":"DE","NAME_EN":"Germany"},"geometry":{"type":"Polygon","coordinates":[[[14.12,53.757],[14.353,53.248],[14.075,52.981],[14.438,52.625],[14.607,51.745],[15.017,51.107],[14.307,51.117],[12.24,50.266],[12.521,49.547],[13.596,48.877],[12.884,48.289],[12.933,47.468],[12.141,47.703],[10.545,47.566],[10.402,47.302],[8.523,47.831],[8.317,47.614],[7.467,47.621],[7.594,48.333],[8.099,49.018],[6.658,49.202],[6.186,49.464],[6.043,50.128],[5.989,51.852],[6.589,51.852],[6.843,52.228],[7.092,53.144],[6.905,53.482],[7.1,53.694],[7.936,53.748],[8.122,53.528],[8.801,54.021],[8.526,54.963],[9.922,54.983],[9.94,54.597],[10.95,54.364],[10.939,54.009],[12.518,54.47],[14.12,53.757]]]}},{"type":"Feature","properties":{"ISO_A2":"PL","NAME_EN":"Poland"},"geometry":{"type":"Polygon","coordinates":[[[23.244,54.221],[23.799,52.691],[23.199,52.487],[24.03,50.705],[23.923,50.425],[23.427,50.309],[22.518,49.477],[22.776,49.027],[21.608,49.47],[19.825,49.217],[19.321,49.572],[18.91,49.436],[18.393,49.989],[17.649,50.049],[17.555,50.362],[16.869,50.474],[16.719,50.216],[16.176,50.423],[16.239,50.698],[15.491,50.785],[15.017,51.107],[14.607,51.745],[14.438,52.625],[14.075,52.981],[14.353,53.248],[14.12,53.757],[17.623,54.852],[18.621,54.683],[18.696,54.439],[22.731,54.328],[23.244,54.221]]]}}]}