{"type":"FeatureCollection","features":[{"type":"Feature","properties":{"ISO_A2":"ID","NAME_EN":"Indonesia"},"geometry":{"type":"MultiPolygon","coordinates":[[[[141.0,-2.6],[141.034,-9.118],[140.143,-8.297],[139.128,-8.096],[138.881,-8.381],[137.614,-8.412],[138.039,-7.598],[138.669,-7.32],[137.928,-5.393],[135.989,-4.547],[135.165,-4.463],[133.663,-3.539],[133.368,-4.025],[132.984,-4.113],[132.754,-3.312],[131.99,-2.821],[133.067,-2.46],[133.78,-2.48],[133.696,-2.215],[132.232,-2.213],[131.836,-1.617],[130.943,-1.433],[130.52,-0.938],[131.868,-0.695],[132.38,-0.37],[133.986,-0.78],[134.423,-2.769],[135.458,-3.368],[136.293,-2.307],[137.441,-1.704],[138.33,-1.703],[139.927,-2.409],[141.0,-2.6]]],[[[124.969,-8.893],[125.089,-9.393],[124.436,-10.14],[123.46,-10.24],[123.98,-9.29],[124.969,-8.893]]],[[[134.21,-6.895],[134.113,-6.142],[134.5,-5.445],[134.725,-6.214],[134.21,-6.895]]],[[[117.882,4.138],[117.313,3.234],[118.048,2.288],[117.876,1.828],[118.997,0.902],[117.812,0.784],[117.478,0.102],[117.522,-0.804],[116.56,-1.488],[116.148,-4.013],[116.001,-3.657],[114.865,-4.107],[114.469,-3.496],[113.756,-3.439],[113.257,-3.119],[112.068,-3.478],[111.703,-2.994],[110.224,-2.934],[110.071,-1.593],[109.572,-1.315],[109.092,-0.46],[108.953,0.415],[109.069,1.342],[109.663,2.006],[109.83,1.338],[110.514,0.773],[111.798,0.904],[112.38,1.41],[112.86,1.498],[113.806,1.218],[114.621,1.431],[115.866,4.307],[117.882,4.138]]],[[[129.371,-2.802],[130.471,-3.094],[130.835,-3.858],[129.991,-3.446],[127.899,-3.393],[128.136,-2.844],[129.371,-2.802]]],[[[126.875,-3.791],[126.184,-3.607],[125.989,-3.177],[127.001,-3.129],[127.249,-3.459],[126.875,-3.791]]],[[[127.932,2.175],[128.004,1.629],[128.595,1.541],[128.688,1.132],[128.636,0.258],[128.12,0.356],[127.968,-0.252],[128.38,-0.78],[128.1,-0.9],[127.696,-0.267],[127.399,1.012],[127.601,1.811],[127.932,2.175]]],[[[122.928,0.875],[124.078,0.917],[125.066,1.643],[125.241,1.42],[124.437,0.428],[123.686,0.236],[122.723,0.431],[120.183,0.237],[120.041,-0.52],[120.936,-1.409],[121.476,-0.956],[123.341,-0.616],[123.258,-1.076],[122.823,-0.931],[122.389,-1.517],[121.508,-1.904],[122.455,-3.186],[122.272,-3.53],[123.171,-4.684],[123.162,-5.341],[122.629,-5.635],[122.236,-5.283],[122.72,-4.464],[121.738,-4.851],[121.489,-4.575],[121.619,-4.188],[120.898,-3.602],[120.972,-2.628],[120.305,-2.932],[120.431,-5.528],[119.797,-5.673],[119.367,-5.38],[119.654,-4.459],[119.499,-3.494],[119.078,-3.487],[118.768,-2.802],[119.181,-2.147],[119.826,0.154],[120.886,1.309],[122.928,0.875]]],[[[120.295,-10.259],[118.968,-9.558],[119.9,-9.361],[120.776,-9.97],[120.716,-10.24],[120.295,-10.259]]],[[[121.342,-8.537],[122.007,-8.461],[122.904,-8.094],[122.757,-8.65],[121.254,-8.934],[119.924,-8.81],[119.921,-8.445],[120.715,-8.237],[121.342,-8.537]]],[[[118.261,-8.362],[118.878,-8.281],[119.127,-8.706],[116.74,-9.033],[117.084,-8.457],[117.632,-8.449],[117.9,-8.096],[118.261,-8.362]]],[[[108.487,-6.422],[108.623,-6.778],[110.539,-6.877],[110.76,-6.465],[112.615,-6.946],[112.979,-7.594],[114.479,-7.777],[115.706,-8.371],[114.565,-8.752],[113.465,-8.349],[111.522,-8.302],[108.694,-7.642],[108.278,-7.767],[106.454,-7.355],[106.281,-6.925],[105.365,-6.851],[106.052,-5.896],[107.265,-5.955],[108.487,-6.422]]],[[[104.37,-1.085],[104.888,-2.34],[105.622,-2.429],[106.109,-3.062],[105.818,-5.852],[104.71,-5.873],[102.584,-4.22],[101.399,-2.8],[100.142,-0.65],[99.264,0.183],[98.601,1.824],[97.7,2.453],[97.177,3.309],[95.381,4.971],[95.293,5.48],[97.485,5.246],[100.641,2.099],[101.658,2.084],[102.498,1.399],[103.077,0.561],[103.838,0.105],[103.438,-0.712],[104.37,-1.085]]]]}},{"type":"Feature","properties":{"ISO_A2":"AR","NAME_EN":"Argentina"},"geometry":{"type":"MultiPolygon","coordinates":[[[[-68.634,-52.636],[-67.75,-53.85],[-66.45,-54.45],[-65.05,-54.7],[-65.5,-55.2],[-66.45,-55.25],[-66.96,-54.897],[-68.633,-54.869],[-68.634,-52.636]]],[[[-57.625,-30.216],[-58.495,-34.431],[-57.226,-35.288],[-57.362,-35.977],[-56.737,-36.413],[-56.788,-36.902],[-57.749,-38.184],[-59.232,-38.72],[-62.336,-38.828],[-62.146,-40.677],[-62.746,-41.029],[-63.77,-41.167],[-64.732,-40.803],[-65.118,-41.064],[-64.979,-42.058],[-64.303,-42.359],[-63.756,-42.044],[-63.458,-42.563],[-64.379,-42.874],[-65.182,-43.495],[-65.565,-45.037],[-66.51,-45.04],[-67.294,-45.552],[-67.581,-46.302],[-66.597,-47.034],[-65.641,-47.236],[-65.985,-48.133],[-67.166,-48.697],[-67.816,-49.87],[-68.729,-50.264],[-69.139,-50.733],[-68.816,-51.771],[-68.15,-52.35],[-71.915,-52.009],[-72.329,-51.426],[-72.31,-50.677],[-72.976,-50.741],[-73.328,-50.379],[-73.415,-49.318],[-72.648,-48.879],[-72.331,-48.244],[-72.447,-47.739],[-71.917,-46.885],[-71.552,-45.561],[-71.659,-44.974],[-71.223,-44.784],[-71.33,-44.408],[-71.794,-44.207],[-71.464,-43.788],[-71.915,-43.409],[-72.149,-42.255],[-71.747,-42.051],[-71.916,-40.832],[-71.414,-38.916],[-70.815,-38.553],[-71.122,-36.658],[-70.365,-36.005],[-70.388,-35.17],[-69.817,-34.194],[-69.815,-33.274],[-70.074,-33.091],[-70.535,-31.365],[-69.919,-30.336],[-70.014,-29.368],[-69.656,-28.459],[-68.296,-26.899],[-68.595,-26.507],[-68.386,-26.185],[-68.418,-24.519],[-67.328,-24.025],[-66.985,-22.986],[-67.107,-22.736],[-66.273,-21.832],[-64.965,-22.076],[-64.377,-22.798],[-63.987,-21.994],[-62.846,-22.035],[-60.847,-23.881],[-60.029,-24.033],[-57.777,-25.162],[-57.634,-25.604],[-58.618,-27.124],[-56.487,-27.548],[-55.696,-27.388],[-54.789,-26.622],[-54.625,-25.739],[-54.13,-25.548],[-53.628,-26.125],[-53.649,-26.923],[-55.162,-27.882],[-57.625,-30.216]]]]}},{"type":"Feature","properties":{"ISO_A2":"PH","NAME_EN":"Philippines"},"geometry":{"type":"MultiPolygon","coordinates":[[[[121.262,12.206],[120.323,13.466],[121.18,13.43],[121.527,13.07],[121.262,12.206]]],[[[122.38,9.713],[122.947,10.882],[123.499,10.941],[123.338,10.267],[124.078,11.233],[123.982,10.279],[122.996,9.022],[122.38,9.713]]],[[[126.223,9.286],[126.537,7.189],[126.197,6.274],[125.831,7.294],[125.364,6.786],[125.683,6.05],[125.397,5.581],[124.22,6.161],[123.939,6.885],[124.244,7.361],[123.61,7.834],[123.296,7.419],[122.826,7.457],[122.085,6.899],[121.92,7.192],[122.312,8.035],[123.488,8.693],[123.841,8.24],[124.601,8.514],[124.765,8.96],[125.471,8.987],[125.412,9.76],[126.223,9.286]]],[[[118.505,9.316],[117.174,8.367],[118.987,10.376],[119.511,11.37],[119.69,10.554],[118.505,9.316]]],[[[122.246,18.479],[122.174,17.81],[122.516,17.094],[122.252,16.262],[121.663,15.931],[121.505,15.125],[121.729,14.328],[122.701,14.337],[123.95,13.782],[123.855,13.238],[124.181,12.998],[124.077,12.537],[122.929,13.553],[122.671,13.186],[122.035,13.784],[121.126,13.637],[120.629,13.858],[120.679,14.271],[120.992,14.525],[120.693,14.757],[120.564,14.396],[119.921,15.406],[119.884,16.364],[120.286,16.035],[120.39,17.599],[120.716,18.505],[121.938,18.219],[122.246,18.479]]],[[[122.003,10.441],[121.884,11.892],[122.484,11.582],[123.12,11.584],[123.101,11.166],[122.003,10.441]]],[[[125.227,12.536],[125.783,11.046],[125.012,11.311],[125.277,10.359],[124.802,10.135],[124.76,10.838],[124.459,10.89],[124.303,11.495],[124.891,11.416],[124.878,11.794],[124.267,12.558],[125.227,12.536]]]]}},{"type":"Feature","properties":{"ISO_A2":"CO","NAME_EN":"Colombia"},"geometry":{"type":"Polygon","coordinates":[[[-66.876,1.253],[-67.065,1.13],[-67.538,2.037],[-67.869,1.692],[-69.817,1.715],[-69.805,1.089],[-69.219,0.986],[-69.252,0.603],[-70.016,0.541],[-70.021,-0.185],[-69.577,-0.55],[-69.42,-1.123],[-69.894,-4.298],[-70.394,-3.767],[-70.693,-3.743],[-70.048,-2.725],[-70.813,-2.257],[-73.07,-2.309],[-73.66,-1.26],[-75.107,-0.057],[-75.373,-0.152],[-76.292,0.416],[-76.576,0.257],[-77.425,0.396],[-77.669,0.826],[-78.855,1.381],[-78.991,1.691],[-78.618,1.766],[-78.662,2.267],[-78.428,2.63],[-77.932,2.697],[-77.128,3.85],[-77.496,4.088],[-77.308,4.668],[-77.533,5.583],[-77.319,5.845],[-77.477,6.691],[-77.882,7.224],[-77.753,7.71],[-77.431,7.638],[-77.243,7.935],[-77.475,8.524],[-76.837,8.639],[-75.675,9.443],[-75.48,10.619],[-74.907,11.083],[-74.277,11.102],[-74.197,11.31],[-73.415,11.227],[-71.754,12.437],[-71.4,12.376],[-71.137,12.113],[-71.332,11.776],[-71.974,11.609],[-72.905,10.45],[-73.305,9.152],[-72.789,9.085],[-72.44,8.405],[-72.444,7.424],[-71.96,6.992],[-70.093,6.96],[-69.389,6.1],[-67.695,6.267],[-67.341,6.095],[-67.823,4.504],[-67.303,3.318],[-67.81,2.821],[-67.181,2.251],[-66.876,1.253]]]}},{"type":"Feature","properties":{"ISO_A2":"FR","NAME_EN":"France"},"geometry":{"type":"MultiPolygon","coordinates":[[[[-51.658,4.156],[-52.94,2.125],[-53.418,2.053],[-53.779,2.377],[-54.088,2.106],[-54.525,2.312],[-54.007,3.62],[-54.4,4.213],[-54.479,4.897],[-53.958,5.757],[-52.882,5.41],[-51.823,4.566],[-51.658,4.156]]],[[[4.799,49.985],[8.099,49.018],[7.594,48.333],[7.467,47.621],[6.737,47.542],[6.769,47.288],[6.037,46.726],[6.023,46.273],[6.5,46.43],[6.844,45.991],[7.097,45.333],[6.75,45.029],[7.008,44.255],[7.55,44.128],[7.435,43.694],[6.529,43.129],[4.557,43.4],[3.1,43.075],[2.986,42.473],[1.827,42.343],[0.702,42.796],[0.338,42.58],[-1.503,43.034],[-1.901,43.423],[-1.384,44.023],[-1.194,46.015],[-2.963,47.57],[-4.492,47.955],[-4.592,48.684],[-3.296,48.902],[-1.617,48.644],[-1.933,49.776],[-0.989,49.347],[1.339,50.127],[1.639,50.947],[2.514,51.149],[2.658,50.797],[3.123,50.78],[4.286,49.907],[4.799,49.985]]],[[[8.544,42.257],[9.39,43.01],[9.56,42.152],[9.23,41.38],[8.776,41.584],[8.544,42.257]]]]}},{"type":"Feature","properties":{"ISO_A2":"TR","NAME_EN":"Turkey"},"geometry":{"type":"MultiPolygon","coordinates":[[[[44.773,37.17],[44.293,37.002],[43.942,37.256],[42.779,37.385],[39.523,36.716],[38.168,36.901],[37.067,36.623],[36.739,36.818],[36.685,36.26],[36.15,35.822],[35.782,36.275],[36.161,36.651],[34.715,36.796],[34.027,36.22],[32.509,36.108],[31.7,36.644],[30.622,36.678],[30.391,36.263],[29.7,36.144],[28.733,36.677],[27.641,36.659],[27.049,37.653],[26.318,38.208],[26.805,38.986],[26.171,39.464],[27.28,40.42],[28.82,40.46],[29.24,41.22],[31.146,41.088],[32.348,41.736],[33.513,42.019],[35.168,42.04],[38.348,40.949],[40.373,41.014],[41.554,41.536],[42.62,41.583],[43.583,41.092],[43.656,40.254],[44.794,39.713],[44.109,39.428],[44.421,38.281],[44.226,37.972],[44.773,37.17]]],[[[26.117,41.827],[27.136,42.141],[27.997,42.007],[28.116,41.623],[28.988,41.3],[28.806,41.055],[27.619,41.0],[26.358,40.152],[26.057,40.824],[26.604,41.562],[26.117,41.827]]]]}},{"type":"Feature","properties":{"ISO_A2":"FI","NAME_EN":"Finland"},"geometry":{"type":"Polygon","coordinates":[[[29.016,69.766],[28.446,68.365],[29.977,67.698],[29.055,66.944],[30.218,65.806],[29.544,64.949],[30.445,64.204],[30.036,63.553],[31.516,62.868],[31.14,62.358],[28.07,60.504],[22.87,59.846],[22.291,60.392],[21.322,60.72],[21.545,61.705],[21.059,62.607],[21.536,63.19],[22.443,63.818],[25.398,65.111],[25.294,65.534],[23.903,66.007],[23.566,66.396],[23.539,67.936],[20.646,69.106],[21.245,69.37],[22.356,68.842],[23.662,68.891],[24.736,68.65],[25.689,69.092],[26.18,69.825],[27.732,70.164],[29.016,69.766]]]}},{"type":"Feature","properties":{"ISO_A2":"KR","NAME_EN":"South Korea"},"geometry":{"type":"Polygon","coordinates":[[[126.175,37.75],[126.684,37.805],[127.073,38.256],[128.206,38.37],[128.35,38.612],[129.46,36.784],[129.468,35.632],[129.091,35.082],[126.486,34.39],[126.559,35.685],[126.117,36.725],[126.86,36.894],[126.175,37.75]]]}}]}