{"type":"FeatureCollection","features":[{"type":"Feature","properties":{"ISO_A2":"AU","NAME_EN":"Australia"},"geometry":{"type":"MultiPolygon","coordinates":[[[[146.364,-41.138],[148.289,-40.875],[148.36,-42.062],[148.017,-42.407],[147.914,-43.212],[147.565,-42.938],[146.87,-43.635],[146.048,-43.55],[144.718,-41.163],[144.744,-40.704],[146.364,-41.138]]],[[[126.149,-32.216],[124.222,-32.959],[123.66,-33.89],[119.894,-33.976],[119.299,-34.509],[119.007,-34.464],[118.025,-35.065],[116.625,-35.025],[115.027,-34.197],[115.049,-33.623],[115.715,-33.26],[115.802,-32.205],[114.997,-30.031],[115.04,-29.461],[114.616,-28.516],[114.174,-28.118],[114.049,-27.335],[113.339,-26.117],[113.778,-26.549],[113.441,-25.621],[114.233,-26.298],[114.216,-25.786],[113.394,-24.385],[113.843,-23.06],[113.737,-22.475],[114.15,-21.756],[114.225,-22.517],[114.648,-21.83],[116.712,-20.702],[117.442,-20.747],[119.252,-19.953],[120.856,-19.684],[122.242,-18.198],[122.313,-17.255],[123.013,-16.405],[123.434,-17.269],[123.859,-17.069],[123.503,-16.597],[123.817,-16.111],[124.258,-16.328],[124.38,-15.567],[125.167,-14.68],[125.67,-14.51],[125.686,-14.231],[126.125,-14.347],[126.143,-14.096],[127.066,-13.818],[128.36,-14.869],[129.621,-14.97],[129.41,-14.421],[129.889,-13.619],[130.339,-13.357],[130.184,-13.108],[130.618,-12.536],[131.223,-12.184],[132.575,-12.114],[132.557,-11.603],[131.825,-11.274],[132.357,-11.129],[133.551,-11.787],[135.298,-12.249],[136.492,-11.857],[136.952,-12.352],[136.305,-13.291],[135.962,-13.325],[136.078,-13.724],[135.429,-14.715],[135.5,-14.998],[138.303,-16.808],[139.109,-17.063],[139.261,-17.372],[140.215,-17.711],[140.875,-17.369],[141.274,-16.389],[141.702,-15.045],[141.52,-13.698],[141.843,-12.742],[141.687,-12.408],[142.144,-11.043],[142.515,-10.668],[142.867,-11.785],[143.522,-12.834],[143.562,-13.764],[143.922,-14.548],[144.564,-14.171],[145.375,-14.985],[145.485,-16.286],[145.889,-16.907],[146.16,-17.762],[146.064,-18.28],[146.387,-18.958],[148.848,-20.391],[148.717,-20.633],[149.289,-21.261],[149.678,-22.343],[150.077,-22.123],[150.483,-22.556],[150.727,-22.402],[150.9,-23.462],[152.855,-25.268],[153.136,-26.071],[153.093,-27.26],[153.569,-28.11],[152.892,-31.64],[152.45,-32.55],[151.709,-33.041],[150.328,-35.672],[149.997,-37.425],[149.424,-37.773],[148.305,-37.809],[146.318,-39.036],[144.877,-38.417],[145.032,-37.896],[143.61,-38.809],[140.639,-38.019],[139.992,-37.403],[139.574,-36.138],[139.083,-35.733],[138.121,-35.612],[138.449,-35.127],[138.208,-34.385],[137.719,-35.077],[136.829,-35.261],[137.89,-33.64],[137.81,-32.9],[136.372,-34.095],[135.989,-34.89],[135.208,-34.479],[135.239,-33.948],[134.086,-32.848],[134.274,-32.617],[131.326,-31.496],[129.536,-31.59],[127.103,-32.282],[126.149,-32.216]]]]}},{"type":"Feature","properties":{"ISO_A2":"BR","NAME_EN":"Brazil"},"geometry":{"type":"Polygon","coordinates":[[[-53.374,-33.768],[-53.651,-33.202],[-53.21,-32.728],[-53.788,-32.047],[-56.976,-30.11],[-57.625,-30.216],[-55.162,-27.882],[-53.649,-26.923],[-53.628,-26.125],[-54.13,-25.548],[-54.625,-25.739],[-54.293,-24.021],[-54.653,-23.84],[-55.401,-23.957],[-55.798,-22.357],[-56.473,-22.086],[-56.882,-22.282],[-57.937,-22.09],[-57.871,-20.733],[-58.166,-20.177],[-57.854,-19.97],[-57.95,-19.4],[-57.498,-18.174],[-57.735,-17.552],[-58.281,-17.272],[-58.241,-16.3],[-60.158,-16.258],[-60.543,-15.094],[-60.251,-15.077],[-60.503,-13.776],[-61.084,-13.479],[-61.713,-13.489],[-63.196,-12.627],[-64.316,-12.462],[-65.402,-11.566],[-65.338,-9.762],[-66.647,-9.931],[-68.271,-11.015],[-70.549,-11.009],[-70.482,-9.49],[-71.302,-10.079],[-72.185,-10.054],[-72.563,-9.52],[-73.227,-9.462],[-73.015,-9.033],[-73.987,-7.524],[-73.723,-7.341],[-73.724,-6.919],[-73.12,-6.63],[-73.22,-6.089],[-72.892,-5.275],[-70.795,-4.251],[-69.894,-4.298],[-69.42,-1.123],[-69.577,-0.55],[-70.021,-0.185],[-70.016,0.541],[-69.252,0.603],[-69.219,0.986],[-69.805,1.089],[-69.817,1.715],[-67.869,1.692],[-67.538,2.037],[-67.065,1.13],[-66.876,1.253],[-66.326,0.724],[-65.548,0.789],[-65.355,1.095],[-64.199,1.493],[-64.083,1.916],[-63.369,2.201],[-63.423,2.411],[-64.27,2.497],[-64.368,3.797],[-64.816,4.056],[-63.093,3.771],[-60.967,4.536],[-60.601,4.918],[-60.734,5.2],[-60.214,5.244],[-59.981,5.014],[-60.111,4.575],[-59.538,3.959],[-59.975,2.755],[-59.646,1.787],[-59.031,1.318],[-58.54,1.268],[-57.336,1.949],[-55.996,1.818],[-55.973,2.51],[-55.098,2.524],[-54.088,2.106],[-53.779,2.377],[-53.418,2.053],[-52.94,2.125],[-51.658,4.156],[-51.317,4.203],[-50.509,1.902],[-49.974,1.736],[-49.947,1.046],[-50.699,0.223],[-50.388,-0.078],[-48.621,-0.235],[-48.584,-1.238],[-47.825,-0.582],[-44.906,-1.552],[-44.418,-2.138],[-44.582,-2.691],[-43.419,-2.383],[-41.473,-2.912],[-39.979,-2.873],[-38.5,-3.701],[-37.223,-4.821],[-35.598,-5.15],[-35.235,-5.465],[-34.73,-7.343],[-35.128,-8.996],[-37.047,-11.041],[-38.424,-13.038],[-38.674,-13.058],[-38.953,-13.793],[-38.882,-15.667],[-39.267,-17.868],[-39.584,-18.262],[-39.761,-19.599],[-40.775,-20.905],[-40.945,-21.937],[-41.754,-22.371],[-41.988,-22.97],[-43.075,-22.968],[-44.648,-23.352],[-46.472,-24.089],[-47.649,-24.885],[-48.495,-25.877],[-48.641,-26.624],[-48.475,-27.176],[-48.888,-28.674],[-49.587,-29.224],[-50.697,-30.984],[-52.256,-32.245],[-52.712,-33.197],[-53.374,-33.768]]]}},{"type":"Feature","properties":{"ISO_A2":"IN","NAME_EN":"India"},"geometry":{"type":"Polygon","coordinates":[[[97.327,28.262],[97.403,27.883],[97.052,27.699],[97.134,27.084],[96.419,27.265],[95.125,26.574],[95.155,26.001],[94.107,23.851],[93.325,24.079],[93.166,22.278],[92.673,22.041],[92.146,23.627],[91.87,23.624],[91.706,22.985],[91.159,23.504],[91.468,24.073],[91.915,24.13],[92.376,24.977],[89.921,25.27],[89.832,25.965],[88.563,26.447],[88.21,25.768],[88.932,25.239],[88.084,24.502],[88.7,24.234],[88.53,23.631],[89.032,22.056],[88.889,21.691],[86.976,21.496],[87.033,20.743],[86.499,20.152],[85.06,19.479],[83.941,18.302],[82.193,17.017],[82.191,16.557],[80.325,15.899],[80.025,15.136],[80.286,13.006],[79.863,12.056],[79.858,10.357],[79.341,10.309],[78.885,9.546],[79.19,9.217],[78.278,8.933],[77.54,7.966],[76.593,8.899],[75.746,11.308],[74.865,12.742],[74.444,14.617],[73.534,15.991],[72.821,19.208],[72.631,21.356],[71.175,20.757],[70.47,20.877],[69.164,22.089],[69.645,22.451],[69.35,22.843],[68.177,23.692],[68.843,24.359],[71.043,24.357],[70.845,25.215],[70.283,25.722],[70.169,26.492],[69.514,26.941],[70.616,27.989],[71.778,27.913],[74.421,30.98],[74.406,31.693],[75.259,32.271],[74.452,32.765],[73.75,34.318],[74.24,34.749],[75.757,34.505],[76.872,34.654],[77.837,35.494],[78.912,34.322],[78.811,33.506],[79.209,32.994],[79.176,32.484],[78.458,32.618],[78.739,31.516],[81.111,30.183],[80.477,29.73],[80.088,28.794],[83.304,27.365],[84.675,27.235],[85.252,26.726],[88.06,26.415],[88.12,27.877],[88.73,28.087],[88.836,27.099],[89.745,26.719],[92.033,26.838],[92.104,27.453],[91.697,27.772],[92.503,27.897],[94.566,29.277],[95.405,29.032],[96.118,29.453],[96.587,28.831],[96.249,28.411],[97.327,28.262]]]}},{"type":"Feature","properties":{"ISO_A2":"NO","NAME_EN":"Norway"},"geometry":{"type":"MultiPolygon","coordinates":[[[[15.143,79.674],[15.523,80.016],[16.991,80.051],[21.544,78.956],[19.027,78.563],[18.472,77.827],[17.594,77.638],[17.118,76.809],[15.913,76.77],[13.763,77.38],[14.67,77.736],[13.171,78.025],[11.222,78.869],[10.445,79.652],[13.171,80.01],[13.719,79.66],[15.143,79.674]]],[[[31.101,69.558],[28.592,69.065],[29.016,69.766],[27.732,70.164],[26.18,69.825],[25.689,69.092],[24.736,68.65],[23.662,68.891],[22.356,68.842],[21.245,69.37],[20.025,69.065],[19.879,68.407],[17.994,68.567],[17.729,68.011],[16.769,68.014],[13.556,64.787],[13.92,64.445],[13.572,64.049],[12.58,64.066],[11.931,63.128],[11.992,61.8],[12.631,61.294],[12.3,60.118],[11.027,58.856],[10.357,59.47],[8.382,58.313],[7.049,58.079],[5.666,58.588],[4.992,61.971],[5.913,62.614],[8.553,63.454],[10.528,64.486],[14.761,67.811],[19.184,69.817],[21.378,70.255],[23.024,70.202],[24.547,71.03],[28.166,71.185],[31.293,70.454],[30.005,70.186],[31.101,69.558]]],[[[27.408,80.056],[25.925,79.518],[23.024,79.4],[20.075,79.567],[19.897,79.842],[18.462,79.86],[17.368,80.319],[20.456,80.598],[21.908,80.358],[22.919,80.657],[27.408,80.056]]],[[[24.724,77.854],[22.49,77.445],[20.726,77.677],[21.416,77.935],[20.812,78.255],[22.884,78.455],[23.281,78.08],[24.724,77.854]]]]}},{"type":"Feature","properties":{"ISO_A2":"IT","NAME_EN":"Italy"},"geometry":{"type":"MultiPolygon","coordinates":[[[[10.443,46.894],[11.049,46.751],[12.153,47.115],[12.376,46.768],[13.806,46.509],[13.698,46.017],[13.938,45.591],[13.142,45.737],[12.329,45.382],[12.261,44.6],[12.589,44.091],[13.527,43.588],[14.03,42.761],[15.143,41.955],[15.926,41.961],[16.17,41.74],[15.889,41.541],[18.377,40.356],[18.293,39.811],[17.738,40.278],[16.87,40.442],[16.449,39.795],[17.171,39.425],[17.053,38.903],[16.635,38.844],[16.101,37.986],[15.684,37.909],[16.109,38.965],[15.414,40.048],[13.628,41.188],[12.888,41.253],[11.192,42.355],[10.512,42.931],[10.2,43.92],[8.889,44.366],[7.435,43.694],[7.55,44.128],[7.008,44.255],[6.75,45.029],[7.097,45.333],[6.844,45.991],[7.274,45.777],[8.317,46.164],[8.966,46.037],[9.183,46.44],[9.923,46.315],[10.363,46.484],[10.443,46.894]]],[[[12.571,38.126],[15.52,38.231],[15.1,36.62],[12.431,37.613],[12.571,38.126]]],[[[8.71,40.9],[9.21,41.21],[9.81,40.5],[9.67,39.177],[9.215,39.24],[8.807,38.907],[8.428,39.172],[8.16,40.95],[8.71,40.9]]]]}},{"type":"Feature","properties":{"ISO_A2":"TH","NAME_EN":"Thailand"},"geometry":{"type":"Polygon","coordinates":[[[105.219,14.273],[104.281,14.417],[102.988,14.226],[102.348,13.394],[102.585,12.187],[101.687,12.646],[100.832,12.627],[100.978,13.413],[100.098,13.407],[100.019,12.307],[99.154,9.963],[99.222,9.239],[99.874,9.208],[100.459,7.43],[102.141,6.222],[101.814,5.811],[101.154,5.691],[101.076,6.205],[100.26,6.643],[100.086,6.464],[98.504,8.382],[98.34,7.795],[98.15,8.35],[98.554,9.933],[99.587,11.893],[99.196,12.805],[99.098,13.828],[98.192,15.124],[98.537,15.308],[98.903,16.178],[97.376,18.445],[97.798,18.627],[98.254,19.708],[98.96,19.753],[100.116,20.418],[100.549,20.109],[100.606,19.508],[101.282,19.463],[101.06,17.512],[102.114,18.109],[102.999,17.962],[103.2,18.31],[103.956,18.241],[104.717,17.429],[104.779,16.442],[105.589,15.57],[105.544,14.724],[105.219,14.273]]]}},{"type":"Feature","properties":{"ISO_A2":"ES","NAME_EN":"Spain"},"geometry":{"type":"Polygon","coordinates":[[[-7.454,37.098],[-7.537,37.429],[-7.029,38.076],[-7.374,38.373],[-7.098,39.03],[-7.499,39.63],[-7.067,39.712],[-6.851,41.111],[-6.389,41.382],[-6.669,41.883],[-8.013,41.791],[-8.264,42.28],[-9.035,41.881],[-8.984,42.593],[-9.393,43.027],[-7.978,43.748],[-4.348,43.403],[-1.901,43.423],[-1.503,43.034],[0.338,42.58],[0.702,42.796],[1.827,42.343],[2.986,42.473],[3.039,41.892],[2.092,41.226],[0.811,41.015],[-0.279,39.31],[0.111,38.739],[-0.467,38.292],[-0.683,37.642],[-1.438,37.443],[-2.146,36.674],[-4.369,36.678],[-5.377,35.947],[-5.866,36.03],[-6.52,36.943],[-7.454,37.098]]]}},{"type":"Feature","properties":{"ISO_A2":"NL","NAME_EN":"Netherlands"},"geometry":{"type":"Polygon","coordinates":[[[6.905,53.482],[7.092,53.144],[6.843,52.228],[6.589,51.852],[5.989,51.852],[6.157,50.804],[4.974,51.475],[3.315,51.346],[3.83,51.621],[4.706,53.092],[6.074,53.51],[6.905,53.482]]]}},{"type":"Feature","properties":{"ISO_A2":"TW","NAME_EN":"Taiwan"},"geometry":{"type":"Polygon","coordinates":[[[121.951,24.998],[121.176,22.791],[120.747,21.971],[120.22,22.815],[120.106,23.556],[120.695,24.538],[121.495,25.295],[121.951,24.998]]]}}]}