{"type":"FeatureCollection","features":[{"type":"Feature","properties":{"ISO_A2":"US","NAME_EN":"United States of America"},"geometry":{"type":"MultiPolygon","coordinates":[[[[-122.84,49.0],[-95.159,49.0],[-95.156,49.384],[-94.818,49.389],[-94.64,48.84],[-94.329,48.671],[-91.64,48.14],[-90.83,48.27],[-89.273,48.02],[-88.378,48.303],[-84.876,46.9],[-84.605,46.44],[-84.142,46.512],[-83.891,46.117],[-83.47,45.995],[-83.593,45.817],[-82.551,45.348],[-82.138,43.571],[-83.12,42.08],[-82.69,41.675],[-78.939,42.864],[-79.172,43.466],[-78.72,43.625],[-76.82,43.629],[-74.867,45.0],[-71.505,45.008],[-71.405,45.255],[-70.66,45.46],[-70.0,46.693],[-69.237,47.448],[-68.905,47.185],[-68.234,47.355],[-67.79,47.066],[-67.791,45.703],[-66.965,44.81],[-70.116,43.684],[-70.815,42.865],[-70.825,42.335],[-70.495,41.805],[-70.08,41.78],[-70.185,42.145],[-69.885,41.923],[-69.965,41.637],[-73.71,40.931],[-72.241,41.119],[-71.945,40.93],[-73.345,40.63],[-73.952,40.751],[-74.257,40.474],[-73.962,40.428],[-74.178,39.709],[-74.906,38.94],[-75.528,39.499],[-75.057,38.404],[-75.94,37.217],[-75.722,37.937],[-76.233,38.319],[-76.35,39.15],[-76.543,38.718],[-76.329,38.083],[-76.99,38.24],[-76.302,37.918],[-76.259,36.966],[-75.972,36.897],[-75.727,35.551],[-76.363,34.809],[-77.398,34.512],[-78.055,33.925],[-79.061,33.494],[-79.204,33.158],[-80.301,32.509],[-81.336,31.44],[-81.49,30.73],[-81.314,30.036],[-80.057,26.88],[-80.381,25.206],[-81.172,25.201],[-81.33,25.64],[-81.71,25.87],[-82.855,27.886],[-82.65,28.55],[-83.71,29.937],[-84.1,30.09],[-85.109,29.636],[-86.4,30.4],[-89.594,30.16],[-89.218,29.291],[-89.408,29.16],[-89.779,29.307],[-90.88,29.149],[-91.627,29.677],[-92.499,29.552],[-93.226,29.784],[-94.69,29.48],[-97.14,27.83],[-97.38,26.69],[-97.14,25.87],[-97.53,25.84],[-99.02,26.37],[-99.52,27.54],[-100.958,29.381],[-101.662,29.779],[-102.48,29.76],[-103.11,28.97],[-103.94,29.27],[-104.457,29.572],[-105.037,30.644],[-106.508,31.755],[-108.24,31.755],[-108.242,31.342],[-111.024,31.335],[-114.815,32.525],[-114.721,32.721],[-117.128,32.535],[-117.296,33.046],[-118.411,33.741],[-118.52,34.028],[-120.623,34.609],[-120.744,35.157],[-121.715,36.162],[-122.512,37.783],[-123.727,38.952],[-123.865,39.767],[-124.398,40.313],[-124.214,42.0],[-124.533,42.766],[-124.142,43.708],[-123.899,45.523],[-124.08,46.865],[-124.687,48.184],[-124.566,48.38],[-123.12,48.04],[-122.587,47.096],[-122.34,47.36],[-122.84,49.0]]],[[[-155.861,20.267],[-154.807,19.509],[-155.688,18.916],[-155.937,19.059],[-156.073,19.703],[-155.861,20.267]]],[[[-155.996,20.764],[-156.414,20.572],[-156.711,20.927],[-156.613,21.012],[-155.996,20.764]]],[[[-157.25,21.22],[-156.789,21.069],[-157.325,21.098],[-157.25,21.22]]],[[[-158.025,21.717],[-157.653,21.322],[-157.707,21.264],[-158.127,21.312],[-158.293,21.579],[-158.025,21.717]]],[[[-159.366,22.215],[-159.464,21.883],[-159.801,22.065],[-159.596,22.236],[-159.366,22.215]]],[[[-167.455,60.213],[-165.674,60.294],[-165.579,59.91],[-166.193,59.754],[-167.455,60.213]]],[[[-153.229,57.969],[-152.565,57.901],[-152.141,57.591],[-154.005,56.735],[-154.516,56.993],[-154.671,57.461],[-153.229,57.969]]],[[[-140.986,69.712],[-140.998,60.306],[-139.039,60.0],[-137.452,58.905],[-135.476,59.788],[-133.356,58.41],[-131.708,56.552],[-130.008,55.916],[-129.98,55.285],[-130.536,54.803],[-131.967,55.498],[-132.25,56.37],[-133.539,57.179],[-134.078,58.123],[-136.628,58.212],[-137.8,58.5],[-139.868,59.538],[-142.574,60.084],[-143.959,59.999],[-147.114,60.885],[-148.224,60.673],[-148.018,59.978],[-151.716,59.156],[-151.859,59.745],[-151.41,60.726],[-150.347,61.034],[-150.621,61.284],[-154.019,59.35],[-153.288,58.865],[-154.232,58.146],[-156.308,57.423],[-156.556,56.98],[-158.117,56.464],[-158.433,55.994],[-159.603,55.567],[-160.29,55.644],[-163.069,54.69],[-164.786,54.404],[-164.942,54.572],[-161.804,55.895],[-160.564,56.008],[-158.684,57.017],[-157.723,57.57],[-157.55,58.328],[-157.042,58.919],[-158.195,58.616],[-158.517,58.788],[-159.059,58.424],[-159.712,58.931],[-159.981,58.573],[-160.355,59.071],[-161.969,58.672],[-161.874,59.634],[-162.518,59.99],[-163.818,59.798],[-165.346,60.507],[-165.351,61.074],[-166.121,61.5],[-165.734,62.075],[-164.563,63.146],[-163.067,63.059],[-162.261,63.542],[-161.534,63.456],[-160.773,63.766],[-160.958,64.223],[-161.518,64.403],[-160.778,64.789],[-162.758,64.339],[-163.546,64.559],[-164.961,64.447],[-166.425,64.687],[-168.111,65.67],[-164.475,66.577],[-163.653,66.577],[-163.789,66.077],[-161.678,66.116],[-162.49,66.736],[-163.72,67.116],[-165.39,68.043],[-166.764,68.359],[-166.205,68.883],[-164.431,68.916],[-163.169,69.371],[-162.931,69.858],[-161.909,70.333],[-159.039,70.892],[-158.12,70.825],[-156.581,71.358],[-155.068,71.148],[-154.344,70.696],[-153.9,70.89],[-152.21,70.83],[-152.27,70.6],[-150.74,70.43],[-149.72,70.53],[-144.92,69.99],[-143.589,70.153],[-140.986,69.712]]],[[[-171.732,63.783],[-170.491,63.695],[-168.689,63.298],[-169.529,62.977],[-170.671,63.376],[-171.553,63.318],[-171.791,63.406],[-171.732,63.783]]]]}},{"type":"Feature","properties":{"ISO_A2":"CL","NAME_EN":"Chile"},"geometry":{"type":"MultiPolygon","coordinates":[[[[-68.634,-52.636],[-68.633,-54.869],[-66.96,-54.897],[-67.291,-55.301],[-68.149,-55.612],[-71.006,-55.054],[-73.285,-53.958],[-74.663,-52.837],[-71.108,-54.074],[-70.267,-52.931],[-69.346,-52.518],[-68.634,-52.636]]],[[[-69.59,-17.58],[-69.1,-18.26],[-68.967,-18.982],[-68.442,-19.405],[-68.757,-20.373],[-67.828,-22.873],[-67.107,-22.736],[-66.985,-22.986],[-67.328,-24.025],[-68.418,-24.519],[-68.386,-26.185],[-68.595,-26.507],[-68.296,-26.899],[-69.656,-28.459],[-70.014,-29.368],[-69.919,-30.336],[-70.535,-31.365],[-70.074,-33.091],[-69.815,-33.274],[-69.817,-34.194],[-70.388,-35.17],[-70.365,-36.005],[-71.122,-36.658],[-70.815,-38.553],[-71.414,-38.916],[-71.916,-40.832],[-71.747,-42.051],[-72.149,-42.255],[-71.915,-43.409],[-71.464,-43.788],[-71.794,-44.207],[-71.33,-44.408],[-71.223,-44.784],[-71.659,-44.974],[-71.552,-45.561],[-71.917,-46.885],[-72.447,-47.739],[-72.331,-48.244],[-72.648,-48.879],[-73.415,-49.318],[-73.328,-50.379],[-72.976,-50.741],[-72.31,-50.677],[-72.329,-51.426],[-71.915,-52.009],[-68.572,-52.299],[-69.461,-52.292],[-70.845,-52.899],[-71.006,-53.833],[-71.43,-53.856],[-72.558,-53.531],[-74.947,-52.263],[-75.26,-51.629],[-74.977,-51.043],[-75.48,-50.378],[-75.608,-48.674],[-75.183,-47.712],[-74.127,-46.939],[-75.644,-46.648],[-74.692,-45.764],[-74.352,-44.103],[-73.24,-44.455],[-72.718,-42.383],[-73.389,-42.118],[-73.701,-43.366],[-74.332,-43.225],[-73.677,-39.942],[-73.218,-39.259],[-73.588,-37.156],[-73.167,-37.124],[-71.438,-32.419],[-71.669,-30.921],[-71.37,-30.096],[-71.49,-28.861],[-70.905,-27.64],[-70.091,-21.393],[-70.373,-18.348],[-69.858,-18.093],[-69.59,-17.58]]]]}},{"type":"Feature","properties":{"ISO_A2":"MX","NAME_EN":"Mexico"},"geometry":{"type":"Polygon","coordinates":[[[-117.128,32.535],[-114.721,32.721],[-114.815,32.525],[-111.024,31.335],[-108.242,31.342],[-108.24,31.755],[-106.508,31.755],[-105.037,30.644],[-104.457,29.572],[-103.94,29.27],[-103.11,28.97],[-102.48,29.76],[-101.662,29.779],[-100.958,29.381],[-99.52,27.54],[-99.02,26.37],[-97.14,25.87],[-97.703,24.272],[-97.872,22.444],[-97.189,20.635],[-95.901,18.828],[-94.839,18.563],[-94.426,18.144],[-91.408,18.876],[-90.772,19.284],[-90.279,21.0],[-88.544,21.494],[-87.052,21.544],[-86.812,21.332],[-86.846,20.85],[-87.621,19.647],[-87.437,19.472],[-87.837,18.26],[-88.091,18.517],[-88.49,18.487],[-88.848,17.883],[-91.002,17.818],[-91.002,17.255],[-91.454,17.252],[-90.439,16.41],[-90.464,16.07],[-91.748,16.067],[-92.229,15.251],[-92.228,14.539],[-93.875,15.94],[-94.692,16.201],[-96.557,15.654],[-100.829,17.171],[-101.919,17.916],[-103.501,18.292],[-104.992,19.316],[-105.493,19.947],[-105.731,20.434],[-105.398,20.532],[-105.266,21.422],[-106.029,22.774],[-108.402,25.172],[-109.26,25.581],[-109.444,25.825],[-109.292,26.443],[-110.392,27.162],[-110.641,27.86],[-111.179,27.941],[-112.228,28.954],[-113.164,30.787],[-113.149,31.171],[-114.776,31.8],[-114.937,31.393],[-114.674,30.163],[-111.616,26.663],[-110.655,24.299],[-110.173,24.266],[-109.409,23.365],[-109.854,22.818],[-110.95,24.001],[-112.182,24.738],[-112.301,26.012],[-114.466,27.142],[-115.055,27.723],[-114.57,27.741],[-114.199,28.115],[-114.162,28.566],[-115.519,29.556],[-117.128,32.535]]]}},{"type":"Feature","properties":{"ISO_A2":"JP","NAME_EN":"Japan"},"geometry":{"type":"MultiPolygon","coordinates":[[[[141.885,39.181],[140.959,38.174],[140.976,37.142],[140.6,36.344],[140.774,35.843],[140.253,35.138],[138.976,34.668],[137.218,34.606],[135.793,33.465],[135.121,33.849],[135.079,34.597],[133.34,34.376],[132.157,33.905],[130.986,33.886],[132.0,33.15],[131.333,31.45],[130.686,31.03],[130.202,31.418],[130.448,32.319],[129.815,32.61],[129.408,33.296],[130.354,33.604],[130.878,34.233],[132.618,35.433],[134.608,35.732],[135.678,35.527],[136.724,37.305],[137.391,36.827],[139.426,38.216],[140.055,39.439],[139.883,40.563],[140.306,41.195],[141.369,41.379],[141.914,39.992],[141.885,39.181]]],[[[144.613,43.961],[145.321,44.385],[145.543,43.262],[144.06,42.988],[143.184,41.995],[141.611,42.679],[141.067,41.585],[139.955,41.57],[139.818,42.564],[140.312,43.333],[141.381,43.389],[141.968,45.551],[143.143,44.51],[144.613,43.961]]],[[[132.371,33.464],[132.924,34.06],[133.493,33.945],[133.904,34.365],[134.638,34.149],[134.766,33.806],[134.203,33.201],[133.793,33.522],[133.28,33.29],[133.015,32.705],[132.363,32.989],[132.371,33.464]]]]}},{"type":"Feature","properties":{"ISO_A2":"GB","NAME_EN":"United Kingdom"},"geometry":{"type":"MultiPolygon","coordinates":[[[[-6.198,53.868],[-7.572,54.06],[-7.366,54.596],[-7.572,55.132],[-6.734,55.173],[-5.662,54.555],[-6.198,53.868]]],[[[-3.094,53.405],[-2.945,53.985],[-3.63,54.615],[-4.844,54.791],[-5.083,55.062],[-4.719,55.508],[-5.048,55.784],[-5.586,55.311],[-5.645,56.275],[-6.15,56.785],[-5.787,57.819],[-5.01,58.63],[-3.005,58.635],[-4.074,57.553],[-1.959,57.685],[-2.22,56.87],[-3.119,55.974],[-2.085,55.91],[-1.115,54.625],[-0.43,54.464],[0.47,52.93],[1.682,52.74],[1.56,52.1],[1.051,51.807],[1.45,51.289],[0.55,50.766],[-2.49,50.5],[-2.956,50.697],[-3.617,50.228],[-4.543,50.342],[-5.245,49.96],[-5.777,50.16],[-4.31,51.21],[-3.415,51.426],[-4.984,51.593],[-5.267,51.991],[-4.222,52.301],[-4.77,52.84],[-4.58,53.495],[-3.094,53.405]]]]}},{"type":"Feature","properties":{"ISO_A2":"SE","NAME_EN":"Sweden"},"geometry":{"type":"Polygon","coordinates":[[[11.027,58.856],[12.3,60.118],[12.631,61.294],[11.992,61.8],[11.931,63.128],[12.58,64.066],[13.572,64.049],[13.92,64.445],[13.556,64.787],[16.769,68.014],[17.729,68.011],[17.994,68.567],[19.879,68.407],[20.025,69.065],[20.646,69.106],[23.539,67.936],[23.566,66.396],[23.903,66.007],[22.183,65.724],[21.214,65.026],[21.37,64.414],[17.848,62.749],[17.12,61.341],[18.788,60.082],[17.869,58.954],[16.829,58.72],[16.448,57.041],[15.88,56.104],[14.667,56.201],[14.101,55.408],[12.943,55.362],[12.625,56.307],[11.027,58.856]]]}},{"type":"Feature","properties":{"ISO_A2":"DK","NAME_EN":"Denmark"},"geometry":{"type":"MultiPolygon","coordinates":[[[[9.922,54.983],[8.526,54.963],[8.12,55.518],[8.09,56.54],[8.543,57.11],[9.424,57.172],[10.58,57.73],[10.546,57.216],[10.25,56.89],[10.37,56.61],[10.912,56.459],[9.65,55.47],[9.922,54.983]]],[[[12.371,56.111],[12.69,55.61],[12.09,54.8],[11.044,55.365],[10.904,55.78],[12.371,56.111]]]]}}]}